[
  {
    "OBJECT_NAME": "STARLINK-1593",
    "OBJECT_ID": "20057C",
    "EPOCH": "2025-11-11T04:18:31.436064",
    "MEAN_MOTION": 15.41426236,
    "ECCENTRICITY": 0.0002127,
    "INCLINATION": 53.0538,
    "RA_OF_ASC_NODE": 123.6368,
    "ARG_OF_PERICENTER": 208.5441,
    "MEAN_ANOMALY": 151.5447,
    "EPHEMERIS_TYPE": 0,
    "CLASSIFICATION_TYPE": "U",
    "NORAD_CAT_ID": 46119,
    "ELEMENT_SET_NO": 999,
    "REV_AT_EPOCH": 28953,
    "BSTAR": 0.0035301,
    "MEAN_MOTION_DOT": 0.00152525,
    "MEAN_MOTION_DDOT": 0.0,
    "TLE_LINE1": "1 46119U 20057C   25315.17953051  .00152525  00000+0  35301-2 0  9995",
    "TLE_LINE2": "2 46119  53.0538 123.6368 0002127 208.5441 151.5447 15.41426236289530",
    "COMMENT": "Grouped by shell and plane from TLE"
  },
  {
    "OBJECT_NAME": "STARLINK-1601",
    "OBJECT_ID": "20057D",
    "EPOCH": "2025-11-11T08:00:03.000384",
    "MEAN_MOTION": 15.48251149,
    "ECCENTRICITY": 0.0002492,
    "INCLINATION": 53.0546,
    "RA_OF_ASC_NODE": 121.8441,
    "ARG_OF_PERICENTER": 240.9309,
    "MEAN_ANOMALY": 153.9815,
    "EPHEMERIS_TYPE": 0,
    "CLASSIFICATION_TYPE": "U",
    "NORAD_CAT_ID": 46120,
    "ELEMENT_SET_NO": 999,
    "REV_AT_EPOCH": 576,
    "BSTAR": 0.0045084999999999995,
    "MEAN_MOTION_DOT": 0.00249077,
    "MEAN_MOTION_DDOT": 0.0,
    "TLE_LINE1": "1 46120U 20057D   25315.33336806  .00249077  00000+0  45085-2 0  9997",
    "TLE_LINE2": "2 46120  53.0546 121.8441 0002492 240.9309 153.9815 15.48251149  5763",
    "COMMENT": "Grouped by shell and plane from TLE"
  },
  {
    "OBJECT_NAME": "STARLINK-1641",
    "OBJECT_ID": "20057BK",
    "EPOCH": "2025-11-10T21:30:20.873088",
    "MEAN_MOTION": 15.26563414,
    "ECCENTRICITY": 0.000121,
    "INCLINATION": 53.0503,
    "RA_OF_ASC_NODE": 126.5669,
    "ARG_OF_PERICENTER": 82.3388,
    "MEAN_ANOMALY": 277.7747,
    "EPHEMERIS_TYPE": 0,
    "CLASSIFICATION_TYPE": "U",
    "NORAD_CAT_ID": 46174,
    "ELEMENT_SET_NO": 999,
    "REV_AT_EPOCH": 28820,
    "BSTAR": 0.00072854,
    "MEAN_MOTION_DOT": 0.0001901,
    "MEAN_MOTION_DDOT": 0.0,
    "TLE_LINE1": "1 46174U 20057BK  25314.89607492  .00019010  00000+0  72854-3 0  9995",
    "TLE_LINE2": "2 46174  53.0503 126.5669 0001210  82.3388 277.7747 15.26563414288209",
    "COMMENT": "Grouped by shell and plane from TLE"
  },
  {
    "OBJECT_NAME": "STARLINK-1547",
    "OBJECT_ID": "20062Y",
    "EPOCH": "2025-11-11T04:37:23.392704",
    "MEAN_MOTION": 15.34720086,
    "ECCENTRICITY": 0.0009722,
    "INCLINATION": 53.046,
    "RA_OF_ASC_NODE": 126.0556,
    "ARG_OF_PERICENTER": 147.5798,
    "MEAN_ANOMALY": 212.5802,
    "EPHEMERIS_TYPE": 0,
    "CLASSIFICATION_TYPE": "U",
    "NORAD_CAT_ID": 46347,
    "ELEMENT_SET_NO": 999,
    "REV_AT_EPOCH": 28731,
    "BSTAR": 0.0035767,
    "MEAN_MOTION_DOT": 0.00123897,
    "MEAN_MOTION_DDOT": 0.0,
    "TLE_LINE1": "1 46347U 20062Y   25315.19263186  .00123897  00000+0  35767-2 0  9995",
    "TLE_LINE2": "2 46347  53.0460 126.0556 0009722 147.5798 212.5802 15.34720086287317",
    "COMMENT": "Grouped by shell and plane from TLE"
  },
  {
    "OBJECT_NAME": "STARLINK-1575",
    "OBJECT_ID": "20062AA",
    "EPOCH": "2025-11-10T21:33:31.094784",
    "MEAN_MOTION": 15.44347738,
    "ECCENTRICITY": 0.0011476,
    "INCLINATION": 53.0396,
    "RA_OF_ASC_NODE": 121.5895,
    "ARG_OF_PERICENTER": 141.0863,
    "MEAN_ANOMALY": 219.0971,
    "EPHEMERIS_TYPE": 0,
    "CLASSIFICATION_TYPE": "U",
    "NORAD_CAT_ID": 46349,
    "ELEMENT_SET_NO": 999,
    "REV_AT_EPOCH": 28736,
    "BSTAR": 0.0010135,
    "MEAN_MOTION_DOT": 0.00047459,
    "MEAN_MOTION_DDOT": 0.0,
    "TLE_LINE1": "1 46349U 20062AA  25314.89827656  .00047459  00000+0  10135-2 0  9992",
    "TLE_LINE2": "2 46349  53.0396 121.5895 0011476 141.0863 219.0971 15.44347738287368",
    "COMMENT": "Grouped by shell and plane from TLE"
  },
  {
    "OBJECT_NAME": "STARLINK-1707",
    "OBJECT_ID": "20062AL",
    "EPOCH": "2025-11-11T00:00:02.999808",
    "MEAN_MOTION": 15.34655628,
    "ECCENTRICITY": 0.0008444,
    "INCLINATION": 53.0354,
    "RA_OF_ASC_NODE": 122.7008,
    "ARG_OF_PERICENTER": 145.404,
    "MEAN_ANOMALY": 283.3522,
    "EPHEMERIS_TYPE": 0,
    "CLASSIFICATION_TYPE": "U",
    "NORAD_CAT_ID": 46359,
    "ELEMENT_SET_NO": 999,
    "REV_AT_EPOCH": 587,
    "BSTAR": 0.0036398000000000003,
    "MEAN_MOTION_DOT": 0.00125819,
    "MEAN_MOTION_DDOT": 0.0,
    "TLE_LINE1": "1 46359U 20062AL  25315.00003472  .00125819  00000+0  36398-2 0  9995",
    "TLE_LINE2": "2 46359  53.0354 122.7008 0008444 145.4040 283.3522 15.34655628  5877",
    "COMMENT": "Grouped by shell and plane from TLE"
  },
  {
    "OBJECT_NAME": "STARLINK-1769",
    "OBJECT_ID": "20062BK",
    "EPOCH": "2025-11-11T08:00:03.000384",
    "MEAN_MOTION": 15.51696173,
    "ECCENTRICITY": 0.0013676,
    "INCLINATION": 53.0495,
    "RA_OF_ASC_NODE": 123.1389,
    "ARG_OF_PERICENTER": 157.2839,
    "MEAN_ANOMALY": 255.494,
    "EPHEMERIS_TYPE": 0,
    "CLASSIFICATION_TYPE": "U",
    "NORAD_CAT_ID": 46382,
    "ELEMENT_SET_NO": 999,
    "REV_AT_EPOCH": 580,
    "BSTAR": 0.0043009,
    "MEAN_MOTION_DOT": 0.00269865,
    "MEAN_MOTION_DDOT": 0.0,
    "TLE_LINE1": "1 46382U 20062BK  25315.33336806  .00269865  00000+0  43009-2 0  9994",
    "TLE_LINE2": "2 46382  53.0495 123.1389 0013676 157.2839 255.4940 15.51696173  5802",
    "COMMENT": "Grouped by shell and plane from TLE"
  },
  {
    "OBJECT_NAME": "STARLINK-1832",
    "OBJECT_ID": "20074AT",
    "EPOCH": "2025-11-11T08:00:03.000384",
    "MEAN_MOTION": 15.41337353,
    "ECCENTRICITY": 5.31e-05,
    "INCLINATION": 53.0547,
    "RA_OF_ASC_NODE": 120.5131,
    "ARG_OF_PERICENTER": 66.0189,
    "MEAN_ANOMALY": 85.2923,
    "EPHEMERIS_TYPE": 0,
    "CLASSIFICATION_TYPE": "U",
    "NORAD_CAT_ID": 46780,
    "ELEMENT_SET_NO": 999,
    "REV_AT_EPOCH": 574,
    "BSTAR": 0.0039889999999999995,
    "MEAN_MOTION_DOT": 0.00172347,
    "MEAN_MOTION_DDOT": 0.0,
    "TLE_LINE1": "1 46780U 20074AT  25315.33336806  .00172347  00000+0  39890-2 0  9990",
    "TLE_LINE2": "2 46780  53.0547 120.5131 0000531  66.0189  85.2923 15.41337353  5743",
    "COMMENT": "Grouped by shell and plane from TLE"
  },
  {
    "OBJECT_NAME": "STARLINK-1835",
    "OBJECT_ID": "20074AV",
    "EPOCH": "2025-11-11T06:06:00.856512",
    "MEAN_MOTION": 15.35092694,
    "ECCENTRICITY": 0.0001067,
    "INCLINATION": 53.0546,
    "RA_OF_ASC_NODE": 120.4447,
    "ARG_OF_PERICENTER": 275.6117,
    "MEAN_ANOMALY": 84.4762,
    "EPHEMERIS_TYPE": 0,
    "CLASSIFICATION_TYPE": "U",
    "NORAD_CAT_ID": 46782,
    "ELEMENT_SET_NO": 999,
    "REV_AT_EPOCH": 27900,
    "BSTAR": 0.0037562000000000003,
    "MEAN_MOTION_DOT": 0.00131664,
    "MEAN_MOTION_DDOT": 0.0,
    "TLE_LINE1": "1 46782U 20074AV  25315.25417658  .00131664  00000+0  37562-2 0  9999",
    "TLE_LINE2": "2 46782  53.0546 120.4447 0001067 275.6117  84.4762 15.35092694279000",
    "COMMENT": "Grouped by shell and plane from TLE"
  },
  {
    "OBJECT_NAME": "STARLINK-1934",
    "OBJECT_ID": "20074BF",
    "EPOCH": "2025-11-11T08:00:03.000384",
    "MEAN_MOTION": 15.40054835,
    "ECCENTRICITY": 0.0001019,
    "INCLINATION": 53.0552,
    "RA_OF_ASC_NODE": 120.3541,
    "ARG_OF_PERICENTER": 12.0105,
    "MEAN_ANOMALY": 302.9682,
    "EPHEMERIS_TYPE": 0,
    "CLASSIFICATION_TYPE": "U",
    "NORAD_CAT_ID": 46792,
    "ELEMENT_SET_NO": 999,
    "REV_AT_EPOCH": 581,
    "BSTAR": 0.0049012000000000005,
    "MEAN_MOTION_DOT": 0.00203893,
    "MEAN_MOTION_DDOT": 0.0,
    "TLE_LINE1": "1 46792U 20074BF  25315.33336806  .00203893  00000+0  49012-2 0  9991",
    "TLE_LINE2": "2 46792  53.0552 120.3541 0001019  12.0105 302.9682 15.40054835  5815",
    "COMMENT": "Grouped by shell and plane from TLE"
  },
  {
    "OBJECT_NAME": "STARLINK-1944",
    "OBJECT_ID": "20074BK",
    "EPOCH": "2025-11-11T05:36:45.624960",
    "MEAN_MOTION": 15.39021194,
    "ECCENTRICITY": 0.0001188,
    "INCLINATION": 53.0549,
    "RA_OF_ASC_NODE": 120.2413,
    "ARG_OF_PERICENTER": 289.0451,
    "MEAN_ANOMALY": 71.0423,
    "EPHEMERIS_TYPE": 0,
    "CLASSIFICATION_TYPE": "U",
    "NORAD_CAT_ID": 46796,
    "ELEMENT_SET_NO": 999,
    "REV_AT_EPOCH": 27900,
    "BSTAR": 0.0039575,
    "MEAN_MOTION_DOT": 0.00158095,
    "MEAN_MOTION_DDOT": 0.0,
    "TLE_LINE1": "1 46796U 20074BK  25315.23386140  .00158095  00000+0  39575-2 0  9996",
    "TLE_LINE2": "2 46796  53.0549 120.2413 0001188 289.0451  71.0423 15.39021194279000",
    "COMMENT": "Grouped by shell and plane from TLE"
  },
  {
    "OBJECT_NAME": "STARLINK-30210",
    "OBJECT_ID": "23096C",
    "EPOCH": "2025-11-11T08:00:03.000384",
    "MEAN_MOTION": 15.33017709,
    "ECCENTRICITY": 0.0030742,
    "INCLINATION": 42.9872,
    "RA_OF_ASC_NODE": 121.2953,
    "ARG_OF_PERICENTER": 284.3925,
    "MEAN_ANOMALY": 192.9592,
    "EPHEMERIS_TYPE": 0,
    "CLASSIFICATION_TYPE": "U",
    "NORAD_CAT_ID": 57292,
    "ELEMENT_SET_NO": 999,
    "REV_AT_EPOCH": 587,
    "BSTAR": 0.005233799999999999,
    "MEAN_MOTION_DOT": 0.00176752,
    "MEAN_MOTION_DDOT": 0.0,
    "TLE_LINE1": "1 57292U 23096C   25315.33336806  .00176752  00000+0  52338-2 0  9993",
    "TLE_LINE2": "2 57292  42.9872 121.2953 0030742 284.3925 192.9592 15.33017709  5874",
    "COMMENT": "Grouped by shell and plane from TLE"
  },
  {
    "OBJECT_NAME": "STARLINK-30238",
    "OBJECT_ID": "23096G",
    "EPOCH": "2025-11-11T08:00:03.000384",
    "MEAN_MOTION": 15.33009505,
    "ECCENTRICITY": 0.002789,
    "INCLINATION": 42.9926,
    "RA_OF_ASC_NODE": 120.7173,
    "ARG_OF_PERICENTER": 286.7695,
    "MEAN_ANOMALY": 87.3506,
    "EPHEMERIS_TYPE": 0,
    "CLASSIFICATION_TYPE": "U",
    "NORAD_CAT_ID": 57296,
    "ELEMENT_SET_NO": 999,
    "REV_AT_EPOCH": 586,
    "BSTAR": 0.005357499999999999,
    "MEAN_MOTION_DOT": 0.00180508,
    "MEAN_MOTION_DDOT": 0.0,
    "TLE_LINE1": "1 57296U 23096G   25315.33336806  .00180508  00000+0  53575-2 0  9995",
    "TLE_LINE2": "2 57296  42.9926 120.7173 0027890 286.7695  87.3506 15.33009505  5862",
    "COMMENT": "Grouped by shell and plane from TLE"
  }
]